              M50 Cartesian                         J2K Cartesian  
    -----------------------------------       --------------------------------
     X    =         -16278.57                 X    =          -63995.63
     Y    =       20784864.30  feet           Y    =         6334841.21  meter
     Z    =       -7974951.08                 Z    =        -2430932.24
     XDOT =     -16833.881193                 XDOT =       -5081.967526
     YDOT =      -6687.342799  feet/sec       YDOT =       -2095.405711  meter/sec
     ZDOT =     -17442.340783                 ZDOT =       -5341.231915
 
              TDR Cartesian                         TDR Cartesian  
    -----------------------------------       --------------------------------
     X    =      -20503825.30                 X    =        -6249565.95
     Y    =       -3402098.91  feet           Y    =        -1036959.75  meter
     Z    =       -7976814.18                 Z    =        -2431332.96
     XDOT =       9113.680283                 XDOT =        2777.849750
     YDOT =     -13889.900766  feet/sec       YDOT =       -4233.641754  meter/sec
     ZDOT =     -17549.716232                 ZDOT =       -5349.153508
  
  
    The mean element set is posted at the UTC for which position is
    just north of the next ascending node relative to the above
    vector time
 
 
    TWO LINE MEAN ELEMENT SET
  
    ISS
    1 25544U 98067A   16130.12177585  .00016717  00000-0  10270-3 0  9149
    2 25544  51.6437 252.9228 0001740  86.5725 273.5627 15.54430857 38907
  
  
    Satellite: ISS
    Catalog Number: 25544
    Epoch time:      16130.12177585   =   yrday.fracday
    Element set:     914
    Inclination:       51.6437  deg
    RA of node:       252.9228  deg
    Eccentricity:     .0001740     
    Arg of perigee:    86.5725  deg
    Mean anomaly:     273.5627  deg
    Mean motion:   15.54430857  rev/day
    Decay rate:    1.67170E-04  rev/day^2
    Epoch rev:            3890
    Checksum:              320
 
 
    Coasting Arc #16 (Orbit 3905)
    ---------------------------------------
 
    Vector Time (GMT): 2016/131/02:16:00.000
    Vector Time (MET): N/A
    Weight (LBS)     : 945238.6
 
              M50 Cartesian                         M50 Keplerian  
    -----------------------------------       --------------------------------
     X    =        1050243.44                 A    =         6782073.11  meter
     Y    =       -5469478.39  meter          E    =           .0013083
     Z    =        3860244.97                 I    =           51.29971
     XDOT =       5196.163287                 Wp   =           97.25655
     YDOT =       3892.925400  meter/sec      RA   =          247.13838  deg
     ZDOT =       4088.518442                 TA   =          309.62422
                                              MA   =          309.73962
                                              Ha   =            221.142  n.mi
                                              Hp   =            213.498
 
              M50 Cartesian                         J2K Cartesian  
    -----------------------------------       --------------------------------
     X    =        3445680.56                 X    =         1092574.83
     Y    =      -17944482.89  feet           Y    =        -5457497.40  meter
     Z    =       12664845.71                 Z    =         3865449.35
     XDOT =      17047.779812                 XDOT =        5132.384944
     YDOT =      12772.064961  feet/sec       YDOT =        3950.675506  meter/sec
     ZDOT =      13413.774417                 ZDOT =        4113.605712
 
              TDR Cartesian                         TDR Cartesian  
    -----------------------------------       --------------------------------
     X    =       17245630.40                 X    =         5256468.15
     Y    =        5988953.63  feet           Y    =         1825433.07  meter
     Z    =       12688426.38                 Z    =         3867432.36
     XDOT =     -14711.611514                 XDOT =       -4484.099189
     YDOT =      13620.730971  feet/sec       YDOT =        4151.598800  meter/sec
     ZDOT =      13522.053017                 ZDOT =        4121.521760
  
  
    The mean element set is posted at the UTC for which position is
    just north of the next ascending node relative to the above
    vector time
 
 
    TWO LINE MEAN ELEMENT SET
  
    ISS
    1 25544U 98067A   16131.15040081  .00016717  00000-0  10270-3 0  9154
    2 25544  51.6428 247.7933 0001830  88.3493 271.7869 15.54440229 39064
  
  
    Satellite: ISS
    Catalog Number: 25544
    Epoch time:      16131.15040081   =   yrday.fracday
    Element set:     915
    Inclination:       51.6428  deg
    RA of node:       247.7933  deg
    Eccentricity:     .0001830     
    Arg of perigee:    88.3493  deg
    Mean anomaly:     271.7869  deg
    Mean motion:   15.54440229  rev/day
    Decay rate:    1.67170E-04  rev/day^2
    Epoch rev:            3906
    Checksum:              312
 
             </PRE>
           </TD>
        </TR>
    </TABLE>
    
    <table align="center" border="0" width="600" cellpadding="0" cellspacing="0">
      <tr>
        <td align="center" valign="top"><hr size="1" width="600" noshade="noshade" />
        <font face="Arial,helvetica" size="-2">Curator: <a href="/cgi-bin/comment.cgi?jsc-hsfwebma@mail.nasa.gov">Kim 
          Dismukes</a> | Responsible NASA Official: <a href="/cgi-bin/comment.cgi?jsc-hsfwebma@mail.nasa.gov">Amiko Kauderer</a> | Updated: 06/08/2009<br />
        <a href="http://www.nasa.gov/about/highlights/HP_Privacy.html">Privacy Policy and Important Notices</a></font></td>
      </tr>
    </table>
    </body>
    </html>
